IRIDIUM 159             
1 43578U 18061K   24330.38349868  .00000176  00000+0  55644-4 0  9995
2 43578  86.3936 294.3945 0002154  88.9427 271.2016 14.34219158331857
IRIDIUM 180             
1 43922U 19002A   24330.24346384  .00000726  00000+0  25213-3 0  9998
2 43922  86.4003 231.3139 0002808  78.6670 281.4841 14.34210424307448
IRIDIUM 176             
1 43923U 19002B   24330.26928213  .00003105  00000+0  48818-3 0  9998
2 43923  86.6122 231.3103 0002748  90.8350 269.3182 14.72270791315546
IRIDIUM 168             
1 43924U 19002C   24330.23711640  .00000163  00000+0  51146-4 0  9990
2 43924  86.3998 231.3763 0002120  82.3460 277.7976 14.34217404307421
IRIDIUM 173             
1 43925U 19002D   24330.22443104  .00000187  00000+0  59541-4 0  9990
2 43925  86.3995 231.2936 0002218  83.3630 276.7818 14.34218255307405
IRIDIUM 169             
1 43926U 19002E   24330.35561177  .00001020  00000+0  32682-3 0  9999
2 43926  86.4217 262.8596 0003935  68.6709 291.4909 14.38618237308444
IRIDIUM 172             
1 43927U 19002F   24330.14830139  .00000786  00000+0  27335-3 0  9991
2 43927  86.3996 231.3319 0002128  85.8331 274.3108 14.34227612307402
IRIDIUM 175             
1 43928U 19002G   24330.53575074  .00002537  00000+0  39823-3 0  9990
2 43928  86.1542 195.2807 0002450  51.0310 309.1125 14.72254526315577
